start=new Date('2022-02-12T00:00:00.000Z').valueOf();
sats=[{"LAUNCH_DATE":"2020-11-25","TLE_LINE1":"1 47138U 20088S   22042.72697072  .00006978  00000-0  48667-3 0  9995","CLASSIFICATION_TYPE":"U","NORAD_CAT_ID":"47138","RCS_SIZE":"LARGE","EPHEMERIS_TYPE":"0","PERIAPSIS":"546.124","OBJECT_NAME":"STARLINK-1850","ECCENTRICITY":"0.00014950","EPOCH":"2022-02-11T17:26:50.270208","MEAN_ANOMALY":"294.2418","MEAN_MOTION":"15.06417639","REF_FRAME":"TEME","APOAPSIS":"548.195","FILE":"3297843","OBJECT_ID":"2020-088S","OBJECT_TYPE":"PAYLOAD","INCLINATION":"53.0553","MEAN_MOTION_DDOT":"0.0000000000000","SITE":"AFETR","MEAN_MOTION_DOT":"0.00006978","TLE_LINE2":"2 47138  53.0553 131.8515 0001495  65.8727 294.2418 15.06417639 68099","CENTER_NAME":"EARTH","SEMIMAJOR_AXIS":"6925.294","ARG_OF_PERICENTER":"65.8727","TIME_SYSTEM":"UTC","BSTAR":"0.00048667000000","REV_AT_EPOCH":"6809","COUNTRY_CODE":"US","DECAY_DATE":null,"PERIOD":"95.591","RA_OF_ASC_NODE":"131.8515","GP_ID":"195758985","ELEMENT_SET_NO":"999","MEAN_ELEMENT_THEORY":"SGP4"},{"MEAN_MOTION":"15.06403059","REF_FRAME":"TEME","APOAPSIS":"548.137","OBJECT_ID":"2020-088T","OBJECT_TYPE":"PAYLOAD","FILE":"3297843","TLE_LINE1":"1 47139U 20088T   22042.72235816  .00003125  00000-0  22857-3 0  9994","LAUNCH_DATE":"2020-11-25","NORAD_CAT_ID":"47139","CLASSIFICATION_TYPE":"U","RCS_SIZE":"LARGE","EPHEMERIS_TYPE":"0","MEAN_ANOMALY":"303.8276","EPOCH":"2022-02-11T17:20:11.745024","PERIAPSIS":"546.271","ECCENTRICITY":"0.00013470","OBJECT_NAME":"STARLINK-1852","BSTAR":"0.00022857000000","COUNTRY_CODE":"US","REV_AT_EPOCH":"6794","RA_OF_ASC_NODE":"141.8836","DECAY_DATE":null,"PERIOD":"95.592","ELEMENT_SET_NO":"999","GP_ID":"195758975","MEAN_ELEMENT_THEORY":"SGP4","INCLINATION":"53.0553","MEAN_MOTION_DDOT":"0.0000000000000","MEAN_MOTION_DOT":"0.00003125","SITE":"AFETR","TLE_LINE2":"2 47139  53.0553 141.8836 0001347  56.2842 303.8276 15.06403059 67948","SEMIMAJOR_AXIS":"6925.339","CENTER_NAME":"EARTH","TIME_SYSTEM":"UTC","ARG_OF_PERICENTER":"56.2842"},{"MEAN_ANOMALY":"281.0006","EPOCH":"2022-02-11T12:50:12.372288","OBJECT_NAME":"STARLINK-1854","PERIAPSIS":"546.236","ECCENTRICITY":"0.00013460","RCS_SIZE":"LARGE","EPHEMERIS_TYPE":"0","NORAD_CAT_ID":"47141","CLASSIFICATION_TYPE":"U","LAUNCH_DATE":"2020-11-25","TLE_LINE1":"1 47141U 20088V   22042.53486542  .00001847  00000-0  14281-3 0  9991","OBJECT_TYPE":"PAYLOAD","OBJECT_ID":"2020-088V","FILE":"3297735","APOAPSIS":"548.101","REF_FRAME":"TEME","MEAN_MOTION":"15.06414717","TIME_SYSTEM":"UTC","ARG_OF_PERICENTER":"79.1134","CENTER_NAME":"EARTH","SEMIMAJOR_AXIS":"6925.303","TLE_LINE2":"2 47141  53.0568 127.7172 0001346  79.1134 281.0006 15.06414717 67839","MEAN_MOTION_DOT":"0.00001847","SITE":"AFETR","MEAN_MOTION_DDOT":"0.0000000000000","INCLINATION":"53.0568","MEAN_ELEMENT_THEORY":"SGP4","ELEMENT_SET_NO":"999","GP_ID":"195753537","RA_OF_ASC_NODE":"127.7172","DECAY_DATE":null,"PERIOD":"95.591","REV_AT_EPOCH":"6783","COUNTRY_CODE":"US","BSTAR":"0.00014281000000"},{"LAUNCH_DATE":"2020-11-25","TLE_LINE1":"1 47143U 20088X   22042.71547073  .00011937  00000-0  81829-3 0  9993","NORAD_CAT_ID":"47143","CLASSIFICATION_TYPE":"U","RCS_SIZE":"LARGE","EPHEMERIS_TYPE":"0","MEAN_ANOMALY":"288.9607","EPOCH":"2022-02-11T17:10:16.671072","ECCENTRICITY":"0.00014000","PERIAPSIS":"546.156","OBJECT_NAME":"STARLINK-1856","MEAN_MOTION":"15.06428768","REF_FRAME":"TEME","APOAPSIS":"548.095","OBJECT_TYPE":"PAYLOAD","OBJECT_ID":"2020-088X","FILE":"3297860","INCLINATION":"53.0536","MEAN_MOTION_DDOT":"0.0000000000000","MEAN_MOTION_DOT":"0.00011937","SITE":"AFETR","TLE_LINE2":"2 47143  53.0536 126.8922 0001400  71.1534 288.9607 15.06428768 68145","CENTER_NAME":"EARTH","SEMIMAJOR_AXIS":"6925.260","TIME_SYSTEM":"UTC","ARG_OF_PERICENTER":"71.1534","BSTAR":"0.00081829000000","REV_AT_EPOCH":"6814","COUNTRY_CODE":"US","RA_OF_ASC_NODE":"126.8922","PERIOD":"95.590","DECAY_DATE":null,"ELEMENT_SET_NO":"999","GP_ID":"195759017","MEAN_ELEMENT_THEORY":"SGP4"},{"ARG_OF_PERICENTER":"55.7466","TIME_SYSTEM":"UTC","SEMIMAJOR_AXIS":"6925.299","CENTER_NAME":"EARTH","SITE":"AFETR","MEAN_MOTION_DOT":"0.00001438","TLE_LINE2":"2 47144  53.0547 118.1658 0001723  55.7466 304.3686 15.06416296 67959","INCLINATION":"53.0547","MEAN_MOTION_DDOT":"0.0000000000000","GP_ID":"195752536","ELEMENT_SET_NO":"999","MEAN_ELEMENT_THEORY":"SGP4","DECAY_DATE":null,"PERIOD":"95.591","RA_OF_ASC_NODE":"118.1658","COUNTRY_CODE":"US","REV_AT_EPOCH":"6795","BSTAR":"0.00011535000000","ECCENTRICITY":"0.00017230","PERIAPSIS":"545.970","OBJECT_NAME":"STARLINK-1857","MEAN_ANOMALY":"304.3686","EPOCH":"2022-02-11T10:28:14.129760","CLASSIFICATION_TYPE":"U","NORAD_CAT_ID":"47144","RCS_SIZE":"LARGE","EPHEMERIS_TYPE":"0","LAUNCH_DATE":"2020-11-25","TLE_LINE1":"1 47144U 20088Y   22042.43627465  .00001438  00000-0  11535-3 0  9999","FILE":"3297735","OBJECT_ID":"2020-088Y","OBJECT_TYPE":"PAYLOAD","APOAPSIS":"548.357","REF_FRAME":"TEME","MEAN_MOTION":"15.06416296"},{"INCLINATION":"53.0555","MEAN_MOTION_DDOT":"0.0000000000000","SITE":"AFETR","MEAN_MOTION_DOT":"0.00048502","TLE_LINE2":"2 47145  53.0555 114.5322 0001683  51.4808 308.6341 15.28638933 68016","CENTER_NAME":"EARTH","SEMIMAJOR_AXIS":"6858.017","ARG_OF_PERICENTER":"51.4808","TIME_SYSTEM":"UTC","BSTAR":"0.00171940000000","REV_AT_EPOCH":"6801","COUNTRY_CODE":"US","DECAY_DATE":null,"PERIOD":"94.201","RA_OF_ASC_NODE":"114.5322","GP_ID":"195752786","ELEMENT_SET_NO":"999","MEAN_ELEMENT_THEORY":"SGP4","LAUNCH_DATE":"2020-11-25","TLE_LINE1":"1 47145U 20088Z   22042.51802449  .00048502  00000-0  17194-2 0  9995","CLASSIFICATION_TYPE":"U","NORAD_CAT_ID":"47145","RCS_SIZE":"LARGE","EPHEMERIS_TYPE":"0","ECCENTRICITY":"0.00016830","PERIAPSIS":"478.728","OBJECT_NAME":"STARLINK-1858","MEAN_ANOMALY":"308.6341","EPOCH":"2022-02-11T12:25:57.315936","MEAN_MOTION":"15.28638933","REF_FRAME":"TEME","APOAPSIS":"481.036","FILE":"3297735","OBJECT_ID":"2020-088Z","OBJECT_TYPE":"PAYLOAD"},{"REF_FRAME":"TEME","MEAN_MOTION":"15.70567126","FILE":"3297735","OBJECT_ID":"2020-088AA","OBJECT_TYPE":"PAYLOAD","APOAPSIS":"359.066","CLASSIFICATION_TYPE":"U","NORAD_CAT_ID":"47146","RCS_SIZE":"LARGE","EPHEMERIS_TYPE":"0","TLE_LINE1":"1 47146U 20088AA  22042.47529300  .00057482  00000-0  45931-3 0  9991","LAUNCH_DATE":"2020-11-25","PERIAPSIS":"355.488","ECCENTRICITY":"0.00026560","OBJECT_NAME":"STARLINK-1859","MEAN_ANOMALY":"32.2321","EPOCH":"2022-02-11T11:24:25.315200","REV_AT_EPOCH":"6792","COUNTRY_CODE":"US","BSTAR":"0.00045931000000","GP_ID":"195753037","ELEMENT_SET_NO":"999","MEAN_ELEMENT_THEORY":"SGP4","DECAY_DATE":null,"PERIOD":"91.687","RA_OF_ASC_NODE":"120.5561","SITE":"AFETR","MEAN_MOTION_DOT":"0.00057482","TLE_LINE2":"2 47146  53.0548 120.5561 0002656 327.8534  32.2321 15.70567126 67927","INCLINATION":"53.0548","MEAN_MOTION_DDOT":"0.0000000000000","ARG_OF_PERICENTER":"327.8534","TIME_SYSTEM":"UTC","SEMIMAJOR_AXIS":"6735.412","CENTER_NAME":"EARTH"},{"RA_OF_ASC_NODE":"137.7637","PERIOD":"95.591","DECAY_DATE":null,"MEAN_ELEMENT_THEORY":"SGP4","ELEMENT_SET_NO":"999","GP_ID":"195758161","BSTAR":"0.00096036000000","REV_AT_EPOCH":"6794","COUNTRY_CODE":"US","CENTER_NAME":"EARTH","SEMIMAJOR_AXIS":"6925.275","TIME_SYSTEM":"UTC","ARG_OF_PERICENTER":"75.1440","MEAN_MOTION_DDOT":"0.0000000000000","INCLINATION":"53.0531","TLE_LINE2":"2 47147  53.0531 137.7637 0001634  75.1440 284.9730 15.06423984 67942","MEAN_MOTION_DOT":"0.00014061","SITE":"AFETR","APOAPSIS":"548.272","OBJECT_TYPE":"PAYLOAD","OBJECT_ID":"2020-088AB","FILE":"3297816","MEAN_MOTION":"15.06423984","REF_FRAME":"TEME","MEAN_ANOMALY":"284.9730","EPOCH":"2022-02-11T12:38:15.381024","OBJECT_NAME":"STARLINK-1860","PERIAPSIS":"546.008","ECCENTRICITY":"0.00016340","TLE_LINE1":"1 47147U 20088AB  22042.52656691  .00014061  00000-0  96036-3 0  9990","LAUNCH_DATE":"2020-11-25","RCS_SIZE":"LARGE","EPHEMERIS_TYPE":"0","NORAD_CAT_ID":"47147","CLASSIFICATION_TYPE":"U"},{"TIME_SYSTEM":"UTC","ARG_OF_PERICENTER":"62.7721","SEMIMAJOR_AXIS":"6925.312","CENTER_NAME":"EARTH","TLE_LINE2":"2 47148  53.0553 127.8792 0001289  62.7721 297.3399 15.06411891 67829","MEAN_MOTION_DOT":"0.00003140","SITE":"AFETR","MEAN_MOTION_DDOT":"0.0000000000000","INCLINATION":"53.0553","MEAN_ELEMENT_THEORY":"SGP4","ELEMENT_SET_NO":"999","GP_ID":"195752036","RA_OF_ASC_NODE":"127.8792","PERIOD":"95.591","DECAY_DATE":null,"REV_AT_EPOCH":"6782","COUNTRY_CODE":"US","BSTAR":"0.00022952000000","MEAN_ANOMALY":"297.3399","EPOCH":"2022-02-11T12:02:26.048832","PERIAPSIS":"546.284","OBJECT_NAME":"STARLINK-1861","ECCENTRICITY":"0.00012890","RCS_SIZE":"LARGE","EPHEMERIS_TYPE":"0","NORAD_CAT_ID":"47148","CLASSIFICATION_TYPE":"U","LAUNCH_DATE":"2020-11-25","TLE_LINE1":"1 47148U 20088AC  22042.50169038  .00003140  00000-0  22952-3 0  9995","OBJECT_TYPE":"PAYLOAD","OBJECT_ID":"2020-088AC","FILE":"3297735","APOAPSIS":"548.070","REF_FRAME":"TEME","MEAN_MOTION":"15.06411891"},{"MEAN_MOTION_DDOT":"0.0000000000000","INCLINATION":"53.0532","TLE_LINE2":"2 47149  53.0532 137.7368 0002005  80.2080 279.9135 15.06363827 68422","MEAN_MOTION_DOT":"0.00031210","SITE":"AFETR","SEMIMAJOR_AXIS":"6925.459","CENTER_NAME":"EARTH","TIME_SYSTEM":"UTC","ARG_OF_PERICENTER":"80.2080","BSTAR":"0.00210690000000","REV_AT_EPOCH":"6842","COUNTRY_CODE":"US","RA_OF_ASC_NODE":"137.7368","DECAY_DATE":null,"PERIOD":"95.594","MEAN_ELEMENT_THEORY":"SGP4","ELEMENT_SET_NO":"999","GP_ID":"195752286","TLE_LINE1":"1 47149U 20088AD  22042.53028752  .00031210  00000-0  21069-2 0  9992","LAUNCH_DATE":"2020-11-25","EPHEMERIS_TYPE":"0","RCS_SIZE":"LARGE","NORAD_CAT_ID":"47149","CLASSIFICATION_TYPE":"U","MEAN_ANOMALY":"279.9135","EPOCH":"2022-02-11T12:43:36.841728","PERIAPSIS":"545.936","OBJECT_NAME":"STARLINK-1862","ECCENTRICITY":"0.00020050","MEAN_MOTION":"15.06363827","REF_FRAME":"TEME","APOAPSIS":"548.713","OBJECT_TYPE":"PAYLOAD","OBJECT_ID":"2020-088AD","FILE":"3297735"}];
